ZIPCODE,CITY,COUNTY
01001,Agawam,Hampden
01002,Amherst,Hampshire
01003,Amherst,Hampshire
01005,Barre,Worcester
01007,Belchertown,Hampshire
01008,Blandford,Hampden
01010,Brimfield,Hampden
01011,Chester,Hampden
01012,Chesterfield,Hampshire
01013,Chicopee,Hampden
01020,Chicopee,Hampden
01022,Chicopee,Hampden
01026,Cummington,Hampshire
01027,Easthampton,Hampshire
01028,EastLongmeadow,Hampden
01030,FeedingHills,Hampden
01031,Gilbertville,Worcester
01032,Goshen,Hampshire
01033,Granby,Hampshire
01034,Granville,Hampden
01035,Hadley,Hampshire
01036,Hampden,Hampden
01038,Hatfield,Hampshire
01039,Haydenville,Hampshire
01040,Holyoke,Hampden
01050,Huntington,Hampshire
01053,Leeds,Hampshire
01054,Leverett,Franklin
01056,Ludlow,Hampden
01057,Monson,Hampden
01060,Northampton,Hampshire
01062,Florence,Hampshire
01063,Northampton,Hampshire
01068,Oakham,Worcester
01069,Palmer,Hampden
01070,Plainfield,Hampshire
01071,Russell,Hampden
01072,Shutesbury,Franklin
01073,Southampton,Hampshire
01075,SouthHadley,Hampshire
01077,Southwick,Hampden
01080,ThreeRivers,Hampden
01081,Wales,Hampden
01082,Ware,Hampshire
01082,Ware,Hampshire
01085,Westfield,Hampden
01089,WestSpringfield,Hampden
01095,Wilbraham,Hampden
01096,Williamsburg,Hampshire
01098,Worthington,Hampshire
01103,Springfield,Hampden
01104,Springfield,Hampden
01105,Springfield,Hampden
01106,Longmeadow,Hampden
01107,Springfield,Hampden
01108,Springfield,Hampden
01109,Springfield,Hampden
01111,Springfield,Hampden
01118,Springfield,Hampden
01119,Springfield,Hampden
01128,Springfield,Hampden
01129,Springfield,Hampden
01144,Springfield,Hampden
01151,IndianOrchard,Hampden
01152,Springfield,Hampden
01199,Springfield,Hampden
01201,Pittsfield,Berkshire
01220,Adams,Berkshire
01222,AshleyFalls,Berkshire
01223,Becket,Berkshire
01224,Berkshire,Berkshire
01225,Cheshire,Berkshire
01226,Dalton,Berkshire
01230,GreatBarrington,Berkshire
01235,Hinsdale,Berkshire
01236,Housatonic,Berkshire
01237,Lanesborough,Berkshire
01238,Lee,Berkshire
01240,Lenox,Berkshire
01245,Monterey,Berkshire
01247,NorthAdams,Berkshire
01253,Otis,Berkshire
01254,Richmond,Berkshire
01255,Sandisfield,Berkshire
01257,Sheffield,Berkshire
01259,Southfield,Berkshire
01263,Stockbridge,Berkshire
01266,WestStockbridge,Berkshire
01267,Williamstown,Berkshire
01301,Greenfield,Franklin
01330,Ashfield,Franklin
01331,Athol,Worcester
01337,Bernardston,Franklin
01338,Buckland,Franklin
01339,Charlemont,Franklin
01340,Colrain,Franklin
01341,Conway,Franklin
01342,Deerfield,Franklin
01344,Erving,Franklin
01346,Heath,Franklin
01351,Montague,Franklin
01360,Northfield,Franklin
01364,Orange,Franklin
01366,Petersham,Worcester
01367,Rowe,Franklin
01370,ShelburneFalls,Franklin
01373,SouthDeerfield,Franklin
01375,Sunderland,Franklin
01376,TurnersFalls,Franklin
01378,Warwick,Franklin
01379,Wendell,Franklin
01380,WendellDepot,Franklin
01420,Fitchburg,Worcester
01430,Ashburnham,Worcester
01431,Ashby,Middlesex
01432,Ayer,Middlesex
01434,Devens,Middlesex
01436,Baldwinville,Worcester
01440,Gardner,Worcester
01441,Westminster,Worcester
01450,Groton,Middlesex
01451,Harvard,Worcester
01452,Hubbardston,Worcester
01453,Leominster,Worcester
01460,Littleton,Middlesex
01462,Lunenburg,Worcester
01463,Pepperell,Middlesex
01464,Shirley,Middlesex
01468,Templeton,Worcester
01469,Townsend,Middlesex
01470,Groton,Middlesex
01471,Groton,Middlesex
01473,Westminster,Worcester
01474,WestTownsend,Middlesex
01475,Winchendon,Worcester
01501,Auburn,Worcester
01503,Berlin,Worcester
01504,Blackstone,Worcester
01505,Boylston,Worcester
01506,Brookfield,Worcester
01507,Charlton,Worcester
01510,Clinton,Worcester
01515,EastBrookfield,Worcester
01516,Douglas,Worcester
01518,Fiskdale,Worcester
01518,Fiskdale,Worcester
01519,Grafton,Worcester
01520,Holden,Worcester
01521,Holland,Hampden
01522,Jefferson,Worcester
01523,Lancaster,Worcester
01524,Leicester,Worcester
01527,Millbury,Worcester
01529,Millville,Worcester
01531,NewBraintree,Worcester
01532,Northborough,Worcester
01534,Northbridge,Worcester
01535,NorthBrookfield,Worcester
01536,NorthGrafton,Worcester
01537,NorthOxford,Worcester
01540,Oxford,Worcester
01541,Princeton,Worcester
01542,Rochdale,Worcester
01543,Rutland,Worcester
01545,Shrewsbury,Worcester
01546,Shrewsbury,Worcester
01550,Southbridge,Worcester
01560,SouthGrafton,Worcester
01562,Spencer,Worcester
01564,Sterling,Worcester
01566,Sturbridge,Worcester
01568,UptonWorcester,
01569,Uxbridge,Worcester
01570,Webster,Worcester
01581,Westborough,Worcester
01583,WestBoylston,Worcester
01585,WestBrookfield,Worcester
01588,Whitinsville,Worcester
01590,Sutton,Worcester
01602,Worcester,Worcester
01603,Worcester,Worcester
01604,Worcester,Worcester
01605,Worcester,Worcester
01606,Worcester,Worcester
01607,Worcester,Worcester
01608,Worcester,Worcester
01609,Worcester,Worcester
01610,Worcester,Worcester
01612,Paxton,Worcester
01653,Worcester,Worcester
01655,Worcester,Worcester
01701,Framingham,Middlesex
01702,Framingham,Middlesex
01718,Acton,Middlesex
01719,Boxborough,Middlesex
01720,Acton,Middlesex
01721,Ashland,Middlesex
01730,Bedford,Middlesex
01731,HanscomAfb,Middlesex
01740,Bolton,Worcester
01741,Carlisle,Middlesex
01742,Concord,Middlesex
01745,Fayville,Worcester
01746,Holliston,Middlesex
01747,Hopedale,Worcester
01748,Hopkinton,Middlesex
01749,Hudson,Middlesex
01752,Marlborough,Middlesex
01754,Maynard,Middlesex
01756,Mendon,Worcester
01757,Milford,Worcester
01760,Natick,Middlesex
01770,Sherborn,Middlesex
01772,Southborough,Worcester
01773,Lincoln,Middlesex
01775,Stow,Middlesex
01776,Sudbury,Middlesex
01778,Wayland,Middlesex
01801,Woburn,Middlesex
01803,Burlington,Middlesex
01805,Burlington,Middlesex
01810,Andover,Essex
01812,Andover,Essex
01813,Woburn,Middlesex
01815,Woburn,Middlesex
01821,Billerica,Middlesex
01824,Chelmsford,Middlesex
01826,Dracut,Middlesex
01827,Dunstable,Middlesex
01830,Haverhill,Essex
01832,Haverhill,Essex
01833,Georgetown,Essex
01835,Haverhill,Essex
01840,Lawrence,Essex
01841,Lawrence,Essex
01843,Lawrence,Essex
01850,Lowell,Middlesex
01851,Lowell,Middlesex
01852,Lowell,Middlesex
01854,Lowell,Middlesex
01860,Merrimac,Essex
01862,NorthBillerica,Middlesex
01863,NorthChelmsford,Middlesex
01864,NorthReading,Middlesex
01867,Reading,Middlesex
01876,Tewksbury,Middlesex
01879,Tyngsboro,Middlesex
01880,Wakefield,Middlesex
01886,Westford,Middlesex
01887,Wilmington,Middlesex
01889,NorthReading,Middlesex
01890,Winchester,Middlesex
01899,Andover,Essex
01901,Lynn,Essex
01902,Lynn,Essex
01904,Lynn,Essex
01905,Lynn,Essex
01910,Lynn,Essex
01913,Amesbury,Essex
01915,Beverly,Essex
01921,Boxford,Essex
01922,Byfield,Essex
01923,Danvers,Essex
01929,Essex,Essex
01930,Gloucester,Essex
01938,Ipswich,Essex
01940,Lynnfield,Essex
01944,Manchester,Essex
01945,Marblehead,Essex
01949,Middleton,Essex
01950,Newburyport,Essex
01951,Newbury,Essex
01960,Peabody,Essex
01966,Rockport,Essex
01969,Rowley,Essex
01970,Salem,Essex
01982,SouthHamilton,Essex
01983,Topsfield,Essex
01984,Wenham,Essex
01985,WestNewbury,Essex
02019,Bellingham,Norfolk
02021,Canton,Norfolk
02025,Cohasset,Norfolk
02026,Dedham,Norfolk
02030,Dover,Norfolk
02032,EastWalpole,Norfolk
02035,Foxboro,Norfolk
02038,Franklin,Norfolk
02043,Hingham,Plymouth
02044,Hingham,Plymouth
02045,Hull,Plymouth
02048,Mansfield,Bristol
02050,Marshfield,Plymouth
02052,Medfield,Norfolk
02053,Medway,Norfolk
02054,Millis,Norfolk
02056,Norfolk,Norfolk
02061,Norwell,Plymouth
02062,Norwood,Norfolk
02066,Scituate,Plymouth
02067,Sharon,Norfolk
02071,SouthWalpole,Norfolk
02072,Stoughton,Norfolk
02081,Walpole,Norfolk
02090,Westwood,Norfolk
02093,Wrentham,Norfolk
02108,Boston,Suffolk
02109,Boston,Suffolk
02110,Boston,Suffolk
02111,Boston,Suffolk
02113,Boston,Suffolk
02114,Boston,Suffolk
02115,Boston,Suffolk
02116,Boston,Suffolk
02118,Boston,Suffolk
02119,Roxbury,Suffolk
02120,RoxburyCrossing,Suffolk
02121,Dorchester,Suffolk
02122,Dorchester,Suffolk
02124,DorchesterCenter,Suffolk
02125,Dorchester,Suffolk
02126,Mattapan,Suffolk
02127,SouthBoston,Suffolk
02128,EastBoston,Suffolk
02129,Charlestown,Suffolk
02130,JamaicaPlain,Suffolk
02131,Roslindale,Suffolk
02132,WestRoxbury,Suffolk
02133,Boston,Suffolk
02134,Allston,Suffolk
02135,Brighton,Suffolk
02136,HydePark,Suffolk
02138,Cambridge,Middlesex
02139,Cambridge,Middlesex
02140,Cambridge,Middlesex
02141,Cambridge,Middlesex
02142,Cambridge,Middlesex
02163,Boston,Suffolk
02163,Boston,Suffolk
02199,Boston,Suffolk
02201,Boston,Suffolk
02203,Boston,Suffolk
02204,Boston,Suffolk
02206,Boston,Suffolk
02210,Boston,Suffolk
02211,Boston,Suffolk
02212,Boston,Suffolk
02215,Boston,Suffolk
02217,Boston,Suffolk
02222,Boston,Suffolk
02241,Boston,Suffolk
02266,Boston,Suffolk
02293,Boston,Suffolk
02297,Boston,Suffolk
02301,Brockton,Plymouth
02302,Brockton,Plymouth
02322,Avon,Norfolk
02324,Bridgewater,Plymouth
02325,Bridgewater,Plymouth
02330,Carver,Plymouth
02332,Duxbury,Plymouth
02333,EastBridgewater,Plymouth
02338,Halifax,Plymouth
02339,Hanover,Plymouth
02341,Hanson,Plymouth
02343,Holbrook,Norfolk
02344,Middleboro,Plymouth
02346,Middleboro,Plymouth
02348,Lakeville,Plymouth
02349,Middleboro,Plymouth
02351,Abington,Plymouth
02356,NorthEaston,Bristol
02357,NorthEaston,Bristol
02359,Pembroke,Plymouth
02360,Plymouth,Plymouth
02367,Plympton,Plymouth
02368,Randolph,Norfolk
02370,Rockland,Plymouth
02375,SouthEaston,Bristol
02379,WestBridgewater,Plymouth
02382,Whitman,Plymouth
02532,BuzzardsBay,Barnstable
02535,Chilmark,Dukes
02536,EastFalmouth,Barnstable
02537,EastSandwich,Barnstable
02538,EastWareham,Plymouth
02539,Edgartown,Dukes
02540,Falmouth,Barnstable
02542,BuzzardsBay,Barnstable
02543,WoodsHole,Barnstable
02554,Nantucket,Nantucket
02556,NorthFalmouth,Barnstable
02559,Pocasset,Barnstable
02562,SagamoreBeach,Barnstable
02563,Sandwich,Barnstable
02568,VineyardHaven,Dukes
02571,Wareham,Plymouth
02576,WestWareham,Plymouth
02601,Hyannis,Barnstable
02630,Barnstable,Barnstable
02631,Brewster,Barnstable
02632,Centerville,Barnstable
02633,Chatham,Barnstable
02635,Cotuit,Barnstable
02638,Dennis,Barnstable
02639,DennisPort,Barnstable
02642,Eastham,Barnstable
02644,Forestdale,Barnstable
02645,Harwich,Barnstable
02646,HarwichPort,Barnstable
02648,MarstonsMills,Barnstable
02649,Mashpee,Barnstable
02650,NorthChatham,Barnstable
02653,Orleans,Barnstable
02655,Osterville,Barnstable
02657,Provincetown,Barnstable
02659,SouthChatham,Barnstable
02660,SouthDennis,Barnstable
02664,SouthYarmouth,Barnstable
02667,Wellfleet,Barnstable
02668,WestBarnstable,Barnstable
02670,WestDennis,Barnstable
02671,WestHarwich,Barnstable
02675,YarmouthPort,Barnstable
02702,Assonet,Bristol
02703,Attleboro,Bristol
02715,Dighton,Bristol
02717,EastFreetown,Bristol
02719,Fairhaven,Bristol
02720,FallRiver,Bristol
02721,FallRiver,Bristol
02723,FallRiver,Bristol
02724,FallRiver,Bristol
02738,Marion,Plymouth
02739,Mattapoisett,Plymouth
02740,NewBedford,Bristol
02743,Acushnet,Bristol
02744,NewBedford,Bristol
02745,NewBedford,Bristol
02746,NewBedford,Bristol
02760,NorthAttleboro,Bristol
02763,AttleboroFalls,Bristol
02764,NorthDighton,Bristol
02766,Norton,Bristol
02767,Raynham,Bristol
02769,Rehoboth,Bristol
02770,Rochester,Plymouth
02771,Seekonk,Bristol
02777,Swansea,Bristol
02780,Taunton,Bristol
02790,Westport,Bristol
05501,Andover,Essex